NORAD_CAT_ID,OBJECT_NAME,OBJECT_TYPE,EPOCH,MEAN_MOTION,ECCENTRICITY,INCLINATION,RA_OF_ASC_NODE,ARG_OF_PERICENTER,MEAN_ANOMALY,BSTAR,MEAN_MOTION_DOT,MEAN_MOTION_DDOT,TLE_LINE0,TLE_LINE1,TLE_LINE2,SEMIMAJOR_AXIS,PERIOD,APOGEE,PERIGEE,DECAYED
49456.0,STARLINK-3124,PAYLOAD,2022-05-02 04:00:00,15.08795085,0.000269,53.2196,57.731,30.3488,150.6361,0.0015422,0.00024312,0.0,0 STARLINK-3124,1 49456U 21104BA  22122.16667824  .00024312  00000-0  15422-2 0  9993,2 49456  53.2196  57.7310 0002690  30.3488 150.6361 15.08795085 27360,6918.018,95.44,541.744,538.0219999999998,0.0
49456.0,STARLINK-3124,PAYLOAD,2022-05-02 14:00:01,15.08810085,0.0002544,53.2195,55.8592,32.0439,253.3871,0.0011568,0.00018156,0.0,0 STARLINK-3124,1 49456U 21104BA  22122.58334491  .00018156  00000-0  11568-2 0  9996,2 49456  53.2195  55.8592 0002544  32.0439 253.3871 15.08810085  3609,6917.972,95.439,541.597,538.077,0.0
49456.0,STARLINK-3124,PAYLOAD,2022-05-02 22:00:01,15.08842608,0.0002579,53.2195,54.3635,34.3337,262.7232,-0.00065235,-0.00010657,0.0,0 STARLINK-3124,1 49456U 21104BA  22122.91668981 -.00010657  00000-0 -65235-3 0  9998,2 49456  53.2195  54.3635 0002579  34.3337 262.7232 15.08842608  3567,6917.871999999999,95.437,541.5219999999998,537.953,0.0
49456.0,STARLINK-3124,PAYLOAD,2022-05-03 10:00:00,15.08857306,0.0002728,53.2192,52.1197,32.2084,102.169,-0.00088038,-0.0001428,0.0,0 STARLINK-3124,1 49456U 21104BA  22123.41667824 -.00014280  00000-0 -88038-3 0  9991,2 49456  53.2192  52.1197 0002728  32.2084 102.1690 15.08857306 27556,6917.8269999999975,95.436,541.58,537.805,0.0
49456.0,STARLINK-3124,PAYLOAD,2022-05-03 14:00:01,15.08842592,0.0002598,53.2196,51.3706,33.9457,286.2423,0.0011686,0.00018361,0.0,0 STARLINK-3124,1 49456U 21104BA  22123.58334491  .00018361  00000-0  11686-2 0  9996,2 49456  53.2196  51.3706 0002598  33.9457 286.2423 15.08842592  3568,6917.871999999999,95.437,541.535,537.94,0.0
49456.0,STARLINK-3124,PAYLOAD,2022-05-03 22:00:00,15.08868662,0.000262,53.2197,49.8748,34.9618,296.8297,-0.0024929,-0.00039778,0.0,0 STARLINK-3124,1 49456U 21104BA  22123.91667824 -.00039778  00000-0 -24929-2 0  9993,2 49456  53.2197  49.8748 0002620  34.9618 296.8297 15.08868662  3598,6917.793000000002,95.436,541.47,537.845,0.0
49456.0,STARLINK-3124,PAYLOAD,2022-05-04 04:00:00,15.08826487,0.0002809,53.2197,48.754,32.5407,217.9672,0.002655,0.00042206,0.0,0 STARLINK-3124,1 49456U 21104BA  22124.16667824  .00042206  00000-0  26550-2 0  9991,2 49456  53.2197  48.7540 0002809  32.5407 217.9672 15.08826487 27669,6917.922,95.438,541.73,537.8430000000002,0.0
49456.0,STARLINK-3124,PAYLOAD,2022-05-04 14:00:01,15.08857088,0.0002582,53.2198,46.8818,33.5702,321.4448,-0.00035651,-5.961e-05,0.0,0 STARLINK-3124,1 49456U 21104BA  22124.58334491 -.00005961  00000-0 -35651-3 0  9990,2 49456  53.2198  46.8818 0002582  33.5702 321.4448 15.08857088  3605,6917.828,95.436,541.479,537.9069999999998,0.0
49456.0,STARLINK-3124,PAYLOAD,2022-05-04 20:00:01,15.08861186,0.0002565,53.2199,45.7596,35.1736,238.6162,-0.00038279,-6.379e-05,0.0,0 STARLINK-3124,1 49456U 21104BA  22124.83335648 -.00006379  00000-0 -38279-3 0  9996,2 49456  53.2199  45.7596 0002565  35.1736 238.6162 15.08861186 27762,6917.816,95.436,541.455,537.906,0.0
49456.0,STARLINK-3124,PAYLOAD,2022-05-04 22:00:01,15.088731,0.0002609,53.22,45.386,33.5328,333.1587,-0.0025158,-0.00040143,0.0,0 STARLINK-3124,1 49456U 21104BA  22124.91668981 -.00040143  00000-0 -25158-2 0  9992,2 49456  53.2200  45.3860 0002609  33.5328 333.1587 15.08873100  3612,6917.779,95.435,541.4490000000002,537.839,0.0
49456.0,STARLINK-3124,PAYLOAD,2022-05-05 14:00:01,15.08838621,0.0002525,53.2202,42.3929,31.2826,358.5607,-0.00036475,-6.089e-05,0.0,0 STARLINK-3124,1 49456U 21104BA  22125.58334491 -.00006089  00000-0 -36475-3 0  9998,2 49456  53.2202  42.3929 0002525  31.2826 358.5607 15.08838621  3570,6917.885,95.438,541.496,538.003,0.0
49456.0,STARLINK-3124,PAYLOAD,2022-05-05 20:00:01,15.08837208,0.0002521,53.2197,41.2702,32.7256,275.8746,-0.00055102,-9.047e-05,0.0,0 STARLINK-3124,1 49456U 21104BA  22125.83335648 -.00009047  00000-0 -55102-3 0  9996,2 49456  53.2197  41.2702 0002521  32.7256 275.8746 15.08837208 27918,6917.889,95.438,541.498,538.01,0.0
49456.0,STARLINK-3124,PAYLOAD,2022-05-05 22:00:00,15.08837761,0.0002596,53.2196,40.8967,31.3938,10.0406,-0.00092787,-0.00015025,0.0,0 STARLINK-3124,1 49456U 21104BA  22125.91667824 -.00015025  00000-0 -92787-3 0  9992,2 49456  53.2196  40.8967 0002596  31.3938  10.0406 15.08837761  3605,6917.887,95.438,541.548,537.956,0.0
49456.0,STARLINK-3124,PAYLOAD,2022-05-06 14:00:01,15.08825106,0.0002501,53.2203,37.904,31.3824,33.2258,0.002037,0.00032267,0.0,0 STARLINK-3124,1 49456U 21104BA  22126.58334491  .00032267  00000-0  20370-2 0  9990,2 49456  53.2203  37.9040 0002501  31.3824  33.2258 15.08825106  3571,6917.926,95.438,541.521,538.061,0.0
49456.0,STARLINK-3124,PAYLOAD,2022-05-06 20:00:01,15.08864364,0.0002501,53.2206,36.7822,32.2678,311.0262,-0.0032681,-0.00051963,0.0,0 STARLINK-3124,1 49456U 21104BA  22126.83334491 -.00051963  00000-0 -32681-2 0  9992,2 49456  53.2206  36.7822 0002501  32.2678 311.0262 15.08864364 28068,6917.806,95.436,541.401,537.941,0.0
49456.0,STARLINK-3124,PAYLOAD,2022-05-07 12:00:00,15.08832476,0.0002495,53.2202,33.7895,31.0724,335.4063,0.00056608,8.731e-05,0.0,0 STARLINK-3124,1 49456U 21104BA  22127.50001157  .00008731  00000-0  56608-3 0  9996,2 49456  53.2202  33.7895 0002495  31.0724 335.4063 15.08832476 28161,6917.903,95.438,541.494,538.0419999999998,0.0
49456.0,STARLINK-3124,PAYLOAD,2022-05-07 14:00:01,15.08821251,0.0002434,53.2201,33.4152,31.1691,68.2112,0.0021957,0.00034812,0.0,0 STARLINK-3124,1 49456U 21104BA  22127.58334491  .00034812  00000-0  21957-2 0  9991,2 49456  53.2201  33.4152 0002434  31.1691  68.2112 15.08821251  3607,6917.938,95.439,541.487,538.119,0.0
49456.0,STARLINK-3124,PAYLOAD,2022-05-07 22:00:00,15.08850784,0.0002516,53.2203,31.92,31.0205,79.9498,-0.0025283,-0.00040315,0.0,0 STARLINK-3124,1 49456U 21104BA  22127.91667824 -.00040315  00000-0 -25283-2 0  9990,2 49456  53.2203  31.9200 0002516  31.0205  79.9498 15.08850784  3606,6917.847,95.437,541.453,537.972,0.0
49456.0,STARLINK-3124,PAYLOAD,2022-05-08 12:00:00,15.08824027,0.0002449,53.22,29.3007,31.9627,9.2829,0.0012173,0.0001913,0.0,0 STARLINK-3124,1 49456U 21104BA  22128.50001157  .00019130  00000-0  12173-2 0  9990,2 49456  53.2200  29.3007 0002449  31.9627   9.2829 15.08824027 28322,6917.929,95.439,541.488,538.1,0.0
49456.0,STARLINK-3124,PAYLOAD,2022-05-08 14:00:01,15.08813658,0.0002413,53.2198,28.9264,32.3408,101.8042,0.0030071,0.00047862,0.0,0 STARLINK-3124,1 49456U 21104BA  22128.58334491  .00047862  00000-0  30071-2 0  9998,2 49456  53.2198  28.9264 0002413  32.3408 101.8042 15.08813658  3610,6917.9609999999975,95.439,541.495,538.1569999999998,0.0
49456.0,STARLINK-3124,PAYLOAD,2022-05-08 22:00:00,15.08858756,0.0002547,53.2198,27.4313,32.8137,112.9171,-0.0011479,-0.00018521,0.0,0 STARLINK-3124,1 49456U 21104BA  22128.91667824 -.00018521  00000-0 -11479-2 0  9997,2 49456  53.2198  27.4313 0002547  32.8137 112.9171 15.08858756  3569,6917.823,95.436,541.45,537.9259999999998,0.0
49456.0,STARLINK-3124,PAYLOAD,2022-05-09 12:00:00,15.08821754,0.0002401,53.2196,24.8118,32.4982,43.5564,0.0019086,0.00030203,0.0,0 STARLINK-3124,1 49456U 21104BA  22129.50001157  .00030203  00000-0  19086-2 0  9995,2 49456  53.2196  24.8118 0002401  32.4982  43.5564 15.08821754 28474,6917.936,95.439,541.462,538.14,0.0
49456.0,STARLINK-3124,PAYLOAD,2022-05-09 14:00:01,15.08818424,0.0002396,53.2195,24.4374,32.817,136.2,0.0031628,0.00050379,0.0,0 STARLINK-3124,1 49456U 21104BA  22129.58335648  .00050379  00000-0  31628-2 0  9990,2 49456  53.2195  24.4374 0002396  32.8170 136.2000 15.08818424  3567,6917.946,95.439,541.469,538.154,0.0
49456.0,STARLINK-3124,PAYLOAD,2022-05-09 22:00:00,15.08868851,0.0002521,53.2195,22.9426,32.3777,148.1646,-0.003719,-0.00059041,0.0,0 STARLINK-3124,1 49456U 21104BA  22129.91667824 -.00059041  00000-0 -37190-2 0  9998,2 49456  53.2195  22.9426 0002521  32.3777 148.1646 15.08868851  3563,6917.792,95.436,541.401,537.913,0.0
49456.0,STARLINK-3124,PAYLOAD,2022-05-10 06:00:00,15.08831897,0.0002594,53.2192,21.4465,29.3803,162.7661,0.00055394,8.537e-05,0.0,0 STARLINK-3124,1 49456U 21104BA  22130.25001157  .00008537  00000-0  55394-3 0  9997,2 49456  53.2192  21.4465 0002594  29.3803 162.7661 15.08831897 28581,6917.905,95.438,541.565,537.976,0.0
49456.0,STARLINK-3124,PAYLOAD,2022-05-10 14:00:01,15.08818442,0.0002405,53.2193,19.9486,33.0126,170.7276,0.0029768,0.0004738,0.0,0 STARLINK-3124,1 49456U 21104BA  22130.58334491  .00047380  00000-0  29768-2 0  9997,2 49456  53.2193  19.9486 0002405  33.0126 170.7276 15.08818442  3561,6917.946,95.439,541.475,538.148,0.0
49456.0,STARLINK-3124,PAYLOAD,2022-05-10 18:00:00,15.08862182,0.0002422,53.2197,19.201,33.8832,355.6397,-0.0017414,-0.00027914,0.0,0 STARLINK-3124,1 49456U 21104BA  22130.75001157 -.00027914  00000-0 -17414-2 0  9994,2 49456  53.2197  19.2010 0002422  33.8832 355.6397 15.08862182  3593,6917.813,95.436,541.3530000000002,538.002,0.0
49456.0,STARLINK-3124,PAYLOAD,2022-05-11 22:00:00,15.08840148,0.0002526,53.2194,13.9645,29.2409,220.8858,-0.0013781,-0.00022155,0.0,0 STARLINK-3124,1 49456U 21104BA  22131.91667824 -.00022155  00000-0 -13781-2 0  9997,2 49456  53.2194  13.9645 0002526  29.2409 220.8858 15.08840148 28836,6917.88,95.438,541.492,537.997,0.0
49456.0,STARLINK-3124,PAYLOAD,2022-05-12 14:00:01,15.08841058,0.0002398,53.2201,10.9709,32.1255,241.1883,0.00051629,7.938e-05,0.0,0 STARLINK-3124,1 49456U 21104BA  22132.58334491  .00007938  00000-0  51629-3 0  9996,2 49456  53.2201  10.9709 0002398  32.1255 241.1883 15.08841058  1300,6917.877,95.437,541.401,538.0830000000002,0.0
